{"type": "FeatureCollection", "features": [ {"type": "Feature", "properties": {"norad_id": 42741, "name": "EUTELSAT 172B", "group": "eutelsat", "lat": -0.0038360619086534255, "lon": 121.72683822429057, "alt_km": 35786.352005584886, "timestamp": "2025-12-03T15:48:02.772725+00:00", "meta": {"OBJECT_NAME": "EUTELSAT 172B", "OBJECT_ID": "2017-029B", "EPOCH": "2025-12-03T07:44:38.676768", "MEAN_MOTION": 1.00271129, "ECCENTRICITY": 1.864e-05, "INCLINATION": 0.0039, "RA_OF_ASC_NODE": 201.5543, "ARG_OF_PERICENTER": 17.0519, "MEAN_ANOMALY": 141.967, "EPHEMERIS_TYPE": 0, "CLASSIFICATION_TYPE": "U", "NORAD_CAT_ID": 42741, "ELEMENT_SET_NO": 999, "REV_AT_EPOCH": 3176, "BSTAR": 0, "MEAN_MOTION_DOT": 1.3e-07, "MEAN_MOTION_DDOT": 0}, "tle": {"line1": "1 42741U 17029B   25337.32266987  .00000013  00000+0  00000+0 0  9992", "line2": "2 42741   0.0039 201.5543 0000186  17.0519 141.9670  1.00271129 31768"}}, "geometry": {"type": "Point", "coordinates": [121.72683822429057, -0.0038360619086534255]}}, {"type": "Feature", "properties": {"norad_id": 44334, "name": "EUTELSAT 7C", "group": "eutelsat", "lat": 0.05418194739118544, "lon": -43.24373705767412, "alt_km": 35784.52587903755, "timestamp": "2025-12-03T15:48:02.772736+00:00", "meta": {"OBJECT_NAME": "EUTELSAT 7C", "OBJECT_ID": "2019-034B", "EPOCH": "2025-12-03T06:56:26.020320", "MEAN_MOTION": 1.00269069, "ECCENTRICITY": 0.00033988, "INCLINATION": 0.0762, "RA_OF_ASC_NODE": 181.9926, "ARG_OF_PERICENTER": 53.7303, "MEAN_ANOMALY": 307.756, "EPHEMERIS_TYPE": 0, "CLASSIFICATION_TYPE": "U", "NORAD_CAT_ID": 44334, "ELEMENT_SET_NO": 999, "REV_AT_EPOCH": 487, "BSTAR": 0, "MEAN_MOTION_DOT": 6.7e-07, "MEAN_MOTION_DDOT": 0}, "tle": {"line1": "1 44334U 19034B   25337.28919005  .00000067  00000+0  00000+0 0  9990", "line2": "2 44334   0.0762 181.9926 0003398  53.7303 307.7560  1.00269069  4875"}}, "geometry": {"type": "Point", "coordinates": [-43.24373705767412, 0.05418194739118544]}}, {"type": "Feature", "properties": {"norad_id": 44624, "name": "EUTELSAT 5 WEST B", "group": "eutelsat", "lat": -0.03466475437951288, "lon": -55.219092059572695, "alt_km": 35776.03903552575, "timestamp": "2025-12-03T15:48:02.772747+00:00", "meta": {"OBJECT_NAME": "EUTELSAT 5 WEST B", "OBJECT_ID": "2019-067A", "EPOCH": "2025-12-03T06:52:56.355168", "MEAN_MOTION": 1.00272745, "ECCENTRICITY": 0.00036887, "INCLINATION": 0.0714, "RA_OF_ASC_NODE": 328.1071, "ARG_OF_PERICENTER": 285.389, "MEAN_ANOMALY": 277.1323, "EPHEMERIS_TYPE": 0, "CLASSIFICATION_TYPE": "U", "NORAD_CAT_ID": 44624, "ELEMENT_SET_NO": 999, "REV_AT_EPOCH": 2247, "BSTAR": 0, "MEAN_MOTION_DOT": -2.3e-07, "MEAN_MOTION_DDOT": 0}, "tle": {"line1": "1 44624U 19067A   25337.28676337 -.00000023  00000+0  00000+0 0  9999", "line2": "2 44624   0.0714 328.1071 0003688 285.3890 277.1323  1.00272745 22474"}}, "geometry": {"type": "Point", "coordinates": [-55.219092059572695, -0.03466475437951288]}}, {"type": "Feature", "properties": {"norad_id": 45027, "name": "EUTELSAT KONNECT", "group": "eutelsat", "lat": -0.04455743939164649, "lon": -43.07178386213908, "alt_km": 35780.79540898895, "timestamp": "2025-12-03T15:48:02.772758+00:00", "meta": {"OBJECT_NAME": "EUTELSAT KONNECT", "OBJECT_ID": "2020-005B", "EPOCH": "2025-12-03T06:56:26.020320", "MEAN_MOTION": 1.00268232, "ECCENTRICITY": 0.00017348, "INCLINATION": 0.0678, "RA_OF_ASC_NODE": 99.5255, "ARG_OF_PERICENTER": 186.4968, "MEAN_ANOMALY": 257.6579, "EPHEMERIS_TYPE": 0, "CLASSIFICATION_TYPE": "U", "NORAD_CAT_ID": 45027, "ELEMENT_SET_NO": 999, "REV_AT_EPOCH": 2236, "BSTAR": 0, "MEAN_MOTION_DOT": 6.8e-07, "MEAN_MOTION_DDOT": 0}, "tle": {"line1": "1 45027U 20005B   25337.28919005  .00000068  00000+0  00000+0 0  9991", "line2": "2 45027   0.0678  99.5255 0001734 186.4968 257.6579  1.00268232 22361"}}, "geometry": {"type": "Point", "coordinates": [-43.07178386213908, -0.04455743939164649]}}, {"type": "Feature", "properties": {"norad_id": 49056, "name": "EUTELSAT QUANTUM", "group": "eutelsat", "lat": 0.0057834822595013635, "lon": -2.515697178494869, "alt_km": 35786.57953788257, "timestamp": "2025-12-03T15:48:02.772768+00:00", "meta": {"OBJECT_NAME": "EUTELSAT QUANTUM", "OBJECT_ID": "2021-069B", "EPOCH": "2025-12-03T01:59:50.557920", "MEAN_MOTION": 1.00271603, "ECCENTRICITY": 0.00037476, "INCLINATION": 0.0169, "RA_OF_ASC_NODE": 10.728, "ARG_OF_PERICENTER": 255.0351, "MEAN_ANOMALY": 244.0851, "EPHEMERIS_TYPE": 0, "CLASSIFICATION_TYPE": "U", "NORAD_CAT_ID": 49056, "ELEMENT_SET_NO": 999, "REV_AT_EPOCH": 1596, "BSTAR": 0, "MEAN_MOTION_DOT": 1.45e-06, "MEAN_MOTION_DDOT": 0}, "tle": {"line1": "1 49056U 21069B   25337.08322405  .00000145  00000+0  00000+0 0  9994", "line2": "2 49056   0.0169  10.7280 0003747 255.0351 244.0851  1.00271603 15967"}}, "geometry": {"type": "Point", "coordinates": [-2.515697178494869, 0.0057834822595013635]}}, {"type": "Feature", "properties": {"norad_id": 53765, "name": "EUTELSAT KONNECT VHTS", "group": "eutelsat", "lat": -0.03506544504488583, "lon": -47.550262265971064, "alt_km": 35785.20806126706, "timestamp": "2025-12-03T15:48:02.772779+00:00", "meta": {"OBJECT_NAME": "EUTELSAT KONNECT VHTS", "OBJECT_ID": "2022-110A", "EPOCH": "2025-12-03T05:12:28.480320", "MEAN_MOTION": 1.00269007, "ECCENTRICITY": 0.00027636, "INCLINATION": 0.0603, "RA_OF_ASC_NODE": 107.1016, "ARG_OF_PERICENTER": 123.1613, "MEAN_ANOMALY": 282.8564, "EPHEMERIS_TYPE": 0, "CLASSIFICATION_TYPE": "U", "NORAD_CAT_ID": 53765, "ELEMENT_SET_NO": 999, "REV_AT_EPOCH": 486, "BSTAR": 0, "MEAN_MOTION_DOT": 3.6e-07, "MEAN_MOTION_DDOT": 0}, "tle": {"line1": "1 53765U 22110A   25337.21699630  .00000036  00000+0  00000+0 0  9995", "line2": "2 53765   0.0603 107.1016 0002763 123.1613 282.8564  1.00269007  4866"}}, "geometry": {"type": "Point", "coordinates": [-47.550262265971064, -0.03506544504488583]}}, {"type": "Feature", "properties": {"norad_id": 54048, "name": "EUTELSAT HOTBIRD 13F", "group": "eutelsat", "lat": 0.033600612811475326, "lon": -37.275661788959006, "alt_km": 35779.340299598174, "timestamp": "2025-12-03T15:48:02.772790+00:00", "meta": {"OBJECT_NAME": "EUTELSAT HOTBIRD 13F", "OBJECT_ID": "2022-134A", "EPOCH": "2025-12-02T19:57:38.448864", "MEAN_MOTION": 1.00271371, "ECCENTRICITY": 0.00019176, "INCLINATION": 0.0542, "RA_OF_ASC_NODE": 289.0481, "ARG_OF_PERICENTER": 66.1354, "MEAN_ANOMALY": 29.1621, "EPHEMERIS_TYPE": 0, "CLASSIFICATION_TYPE": "U", "NORAD_CAT_ID": 54048, "ELEMENT_SET_NO": 999, "REV_AT_EPOCH": 1140, "BSTAR": 0, "MEAN_MOTION_DOT": 1.07e-06, "MEAN_MOTION_DDOT": 0}, "tle": {"line1": "1 54048U 22134A   25336.83169501  .00000107  00000+0  00000+0 0  9991", "line2": "2 54048   0.0542 289.0481 0001917  66.1354  29.1621  1.00271371 11408"}}, "geometry": {"type": "Point", "coordinates": [-37.275661788959006, 0.033600612811475326]}}, {"type": "Feature", "properties": {"norad_id": 54225, "name": "EUTELSAT HOTBIRD 13G", "group": "eutelsat", "lat": 0.04412471014393698, "lon": -37.25386978468665, "alt_km": 35792.69908767459, "timestamp": "2025-12-03T15:48:02.772800+00:00", "meta": {"OBJECT_NAME": "EUTELSAT HOTBIRD 13G", "OBJECT_ID": "2022-146A", "EPOCH": "2025-12-03T00:07:14.496096", "MEAN_MOTION": 1.00271219, "ECCENTRICITY": 0.00021047, "INCLINATION": 0.0475, "RA_OF_ASC_NODE": 238.4149, "ARG_OF_PERICENTER": 306.4933, "MEAN_ANOMALY": 262.0024, "EPHEMERIS_TYPE": 0, "CLASSIFICATION_TYPE": "U", "NORAD_CAT_ID": 54225, "ELEMENT_SET_NO": 999, "REV_AT_EPOCH": 549, "BSTAR": 0, "MEAN_MOTION_DOT": 1.07e-06, "MEAN_MOTION_DDOT": 0}, "tle": {"line1": "1 54225U 22146A   25337.00502889  .00000107  00000+0  00000+0 0  9991", "line2": "2 54225   0.0475 238.4149 0002104 306.4933 262.0024  1.00271219  5499"}}, "geometry": {"type": "Point", "coordinates": [-37.25386978468665, 0.04412471014393698]}}, {"type": "Feature", "properties": {"norad_id": 54259, "name": "EUTELSAT 10B", "group": "eutelsat", "lat": -0.03877662774479596, "lon": -40.25187617530532, "alt_km": 35790.47686721967, "timestamp": "2025-12-03T15:48:02.772811+00:00", "meta": {"OBJECT_NAME": "EUTELSAT 10B", "OBJECT_ID": "2022-157A", "EPOCH": "2025-12-03T04:33:38.733696", "MEAN_MOTION": 1.00268425, "ECCENTRICITY": 0.00010384, "INCLINATION": 0.0608, "RA_OF_ASC_NODE": 103.578, "ARG_OF_PERICENTER": 72.8343, "MEAN_ANOMALY": 334.2971, "EPHEMERIS_TYPE": 0, "CLASSIFICATION_TYPE": "U", "NORAD_CAT_ID": 54259, "ELEMENT_SET_NO": 999, "REV_AT_EPOCH": 1106, "BSTAR": 0, "MEAN_MOTION_DOT": 8.7e-07, "MEAN_MOTION_DDOT": 0}, "tle": {"line1": "1 54259U 22157A   25337.19003164  .00000087  00000+0  00000+0 0  9999", "line2": "2 54259   0.0608 103.5780 0001038  72.8343 334.2971  1.00268425 11069"}}, "geometry": {"type": "Point", "coordinates": [-40.25187617530532, -0.03877662774479596]}}, {"type": "Feature", "properties": {"norad_id": 59346, "name": "EUTELSAT 36D", "group": "eutelsat", "lat": 0.009107183152092472, "lon": -14.41452162494959, "alt_km": 35784.47820699979, "timestamp": "2025-12-03T15:48:02.772821+00:00", "meta": {"OBJECT_NAME": "EUTELSAT 36D", "OBJECT_ID": "2024-059A", "EPOCH": "2025-12-03T07:04:40.230912", "MEAN_MOTION": 1.00270698, "ECCENTRICITY": 6.141e-05, "INCLINATION": 0.0218, "RA_OF_ASC_NODE": 343.4157, "ARG_OF_PERICENTER": 318.4839, "MEAN_ANOMALY": 272.505, "EPHEMERIS_TYPE": 0, "CLASSIFICATION_TYPE": "U", "NORAD_CAT_ID": 59346, "ELEMENT_SET_NO": 999, "REV_AT_EPOCH": 618, "BSTAR": 0, "MEAN_MOTION_DOT": 0, "MEAN_MOTION_DDOT": 0}, "tle": {"line1": "1 59346U 24059A   25337.29491008  .00000000  00000+0  00000+0 0  9998", "line2": "2 59346   0.0218 343.4157 0000614 318.4839 272.5050  1.00270698  6183"}}, "geometry": {"type": "Point", "coordinates": [-14.41452162494959, 0.009107183152092472]}}]}